#dP2019 11 27  0  0  0.00000000      96 __u+U ITR00 FIT  IAC
## 2081 259200.00000000   900.00000000 58814 0.0000000000000
+  104   C06C07C08C09C10C11C12C13C14C16C19C20C21C22C23C24C25
+        C26C27C28C29C30C32C33C34C35C36C37E01E02E03E04E05E07
+        E08E09E11E12E13E14E15E18E19E21E24E25E26E27E30E31E33
+        E36G01G02G03G04G05G06G07G08G09G10G11G12G13G14G15G16
+        G17G18G19G20G21G22G23G24G25G26G27G28G29G30G31G32R01
+        R02R03R05R07R08R09R11R12R13R14R15R16R17R18R19R20R21
+        R23R26  0  0  0  0  0  0  0  0  0  0  0  0  0  0  0
++         8  9  9  8  8  8  8  9  8  8  8  8  8  8  8  8  8
++         8  8  8  8  7  8  8  8  8  8  8  4  5  5  4  5  5
++         5  5  5  4  4  5  4  5  5  4  5  5  5  4  4  5  5
++         4  4  4  4  4  4  5  3  4  4  4  4  4  4  4  4  3
++         3  4  4  4  4  3  4  4  4  3  3  4  4  4  3  4  6
++         6  6  5  5  5  5  5  5  6  5  5  6  5  5  6  6  5
++         6  8  0  0  0  0  0  0  0  0  0  0  0  0  0  0  0
%c M  cc GPS ccc cccc cccc cccc cccc ccccc ccccc ccccc ccccc
%c cc cc ccc ccc cccc cccc cccc cccc ccccc ccccc ccccc ccccc
%f  0.0000000  0.000000000  0.00000000000  0.000000000000000
%f  0.0000000  0.000000000  0.00000000000  0.000000000000000
%i    0    0    0    0      0      0      0      0         0
%i    0    0    0    0      0      0      0      0         0
/* INFORMATION & ANALYSIS CENTER (IAC)      ULTRA-RAPID DATA
/* S/V CLOCKS ARE ALIGNED TO GNSS TIME                      
/* G:C1WC2W R:C1PC2P E:C1XC5X C:C2IC6I J:C1CC2S             
/* PCV:IGS14_2080 OL/AL:FES2004  NONE     YN ORB:CoN CLK:CoN
*  2019 11 27 17 15  0.00000000
PC06  -9372.920918  23562.389922 -33295.228427    304.087371
PC07 -24102.898774  28097.937200  19937.038585    209.377613
PC08 -13500.390914  38101.713666  12669.761804    -42.432218
PC09   6823.283681  31786.765509 -26414.000887    146.792852
PC10  -8174.158116  29142.874303  29392.662279   -407.056520
PC11 -15704.795789 -22854.025269   2864.070966    -27.202508
PC12  -2872.404633 -23476.933016 -14739.441399    302.569778
PC13  -4073.772026  42048.958218  -2427.847211    127.780924
PC14 -16633.954093 -12497.067053  18593.592622    340.630149
PC16  -5853.785873  25218.008658 -33215.136864   -933.938158
PC19  24032.498779   7536.702238 -12012.923210    256.040294
PC20   7393.570438  15221.383871 -22186.562027   -344.210603
PC21  14226.966292 -14063.455653  19471.215284    150.981640
PC22  27018.752685  -4597.082227   5322.559976   -429.598207
PC23 -19554.241893  11071.018510 -16541.358355   -874.258838
PC24    390.025316 -23218.875210 -15454.509972   -880.436233
PC25 -14006.938907  -7946.408188 -22790.394387   -428.274467
PC26  13073.320599 -24632.696855    241.393080    475.930092
PC27  -5324.015247  18503.237279  20183.704044    232.592724
PC28 -17177.787947    805.590417  21981.399933    223.674290
PC29  19613.168815  16574.005575 -10931.834035    151.949260
PC30  10375.939833  24986.027606   6811.740350    231.153718
PC32 -14115.066564  14171.877203 -19452.691225 999999.999999
PC33 -24004.099953  -7495.431252  12080.773648   -610.853983
PC34 -10544.010430 -25025.555235  -6466.436231   -266.915173
PC35  17225.612330  -1309.812918 -21905.208276   -598.244856
PC36  13708.417106   8478.435349  22808.999539   -892.760536
PC37 -13949.125412  24167.395675   -763.315349   -813.670825
PE01    556.282986 -19223.051410 -22493.460834   -740.673625
PE02   -488.501646  19202.533716  22531.058879     94.828285
PE03  10859.820053  19479.043408 -19477.859264   -237.678225
PE04 -25947.797883 -13707.018452   3866.632041   -414.093177
PE05 -10764.000414  13884.571192 -23828.647610   -427.643702
PE07  25965.577944   -201.642104  14217.486834   -305.009929
PE08  26131.947156  13411.337805  -3729.421007   6257.170262
PE09 -25887.158598    374.300827 -14338.079439   6239.327242
PE11 -15701.047567   5051.022223  24577.779643    144.273773
PE12 -14996.499678 -17333.384929  18741.426175   6079.123609
PE13  15640.034136  -4887.907615 -24641.478487    395.805926
PE14 -12150.338408 -24248.285192 -11234.750657   -809.920727
PE15  15085.616259  17018.038727 -18940.174668    886.337826
PE18  22189.303305  17079.556432  -4086.335503   -905.243250
PE19  -8711.160840 -19294.101064  20684.774132     -2.711176
PE21  18343.221571 -21511.602348  -8764.649706   -568.241054
PE24 -25553.814545  11025.791415 -10117.749486   5745.244267
PE25 -18399.522200  21500.155180   8698.901722   -496.934259
PE26   7172.955733 -24063.569011 -15654.951387   3828.404361
PE27  25467.287106 -11125.334661  10190.420833    336.827452
PE30  17576.037375   5917.241988  23065.952716   4350.505389
PE31 -17619.285563  -5731.361511 -23071.752074   -470.685690
PE33  -5695.497989 -28966.614037   2144.949787   -471.691849
PE36  -7025.894645  23964.531840  15903.487373    631.445692
PG01 -13585.081070  16330.424176  15534.992090   -211.327330
PG02  14007.814272   7001.259039 -20843.649831   -355.255982
PG03 -21445.627549  13566.026743  -7746.794586    -43.389119
PG04  -6689.888487  14123.841257 -21399.067070    -13.764745
PG05  24193.615591   -996.534113 -11269.862042     -3.983223
PG06   7321.178864  20031.009323 -15766.394706   -136.757725
PG07  -5506.338377  25685.081292   -952.744944   -157.881181
PG08 -19927.487406   -562.686652  17694.290683    -14.821053
PG09  -2688.117450  16661.758052 -20559.294836    -94.118307
PG10  -5097.748141 -14296.262448  21859.413130   -150.917464
PG11 -11115.718662  14375.631619  18958.762231   -435.762133
PG12  24433.990285  -9598.186060  -3604.569696    179.112538
PG13  21124.820480  10030.619931  12540.259477    -30.217248
PG14 -19147.864561 -18539.850820   -253.761243    -48.086011
PG15  19977.426062  -2068.471773  17263.888237   -269.665611
PG16 -23547.965848  -2441.777958 -12673.006498    -97.362456
PG17  12773.439732  21199.375192  10159.162031    170.661488
PG18 -15010.174061   8374.195216  19720.992805    102.976271
PG19  17455.512517  19867.867713   2053.129013   -233.996239
PG20   5445.685656 -18200.646652  18382.752008    527.549345
PG21    994.999912 -26582.637052   2704.670464    -79.525169
PG22 -24282.092171  10614.834177    644.656445   -774.368457
PG23 -12513.735678   9572.836703 -21072.367873   -153.005812
PG24  14114.935985 -14537.650981  16808.988591     -5.474255
PG25  14202.698307 -16407.204276 -15346.741589    -17.390214
PG26 -16890.490191  -7905.175019 -19005.647042     93.497907
PG27 -22596.774723 -11131.831427   8792.293939   -133.084687
PG28   4751.329071  14330.680357  22456.615608    753.238547
PG29   4448.170847 -15271.727940 -21295.488107     33.127500
PG30   1938.921351  24580.974505   9644.297529    -93.289743
PG31  -8760.201826 -17920.322631 -17326.722516     -6.041891
PG32 -14323.529817 -20402.929816   9412.478840    138.286041
PR01  -3996.433828 -11509.366647  22401.071034     53.296149
PR02 -22333.689342  -8128.116729   9370.257845    399.768374
PR03 -24198.871534     86.113756  -8113.413382      5.526901
PR05   6700.125557  11440.077957 -21785.399762     40.182790
PR07  23950.239731   -401.493517   8734.478492    -29.993923
PR08  12219.211088  -8146.261236  20895.571699     14.155449
PR09  12212.577661   2203.799599  22312.288637    103.302520
PR11  14824.542522 -20581.388998  -2895.420020     18.573207
PR12   3818.588837 -17986.213368 -17636.289017     82.944891
PR13 -10146.813855  -4676.744772 -22943.125186    -31.540378
PR14 -17846.567091  10975.788535 -14526.833633     45.495921
PR15 -15254.978067  20341.665469   2102.864228    104.908900
PR16  -3209.611780  18062.498575  17765.993380     -0.079955
PR17 -11561.847310  -1239.836382  22710.795435    279.236995
PR18  -3823.893596  15437.555541  19944.557540     15.985812
PR19   5275.824260  24058.284463   6662.850679    -66.104644
PR20  12364.572603  18395.428844 -12581.778994   -397.351016
PR21  11261.625322    513.205296 -22880.444869    -87.973668
PR23  -8656.482684 -23985.226537   -531.255794    269.529847
PR26  12049.907560  20542.557554  -9166.634254     12.103979
EOF
